[{"OBJECT_NAME":"STARLINK-3584","OBJECT_ID":"2022-022AK","EPOCH":"2026-03-09T02:24:09.732960","MEAN_MOTION":15.08849631,"ECCENTRICITY":0.00010739,"INCLINATION":53.2182,"RA_OF_ASC_NODE":1.7687,"ARG_OF_PERICENTER":82.5729,"MEAN_ANOMALY":277.5385,"EPHEMERIS_TYPE":0,"CLASSIFICATION_TYPE":"U","NORAD_CAT_ID":51885,"ELEMENT_SET_NO":999,"REV_AT_EPOCH":22315,"BSTAR":0.00028848419,"MEAN_MOTION_DOT":4.308e-5,"MEAN_MOTION_DDOT":0},{"OBJECT_NAME":"ASTRO-H (HITOMI)","OBJECT_ID":"2016-012A","EPOCH":"2026-03-09T04:06:47.322720","MEAN_MOTION":15.10001629,"ECCENTRICITY":0.0009877,"INCLINATION":31.0008,"RA_OF_ASC_NODE":359.8923,"ARG_OF_PERICENTER":325.8962,"MEAN_ANOMALY":34.1041,"EPHEMERIS_TYPE":0,"CLASSIFICATION_TYPE":"U","NORAD_CAT_ID":41337,"ELEMENT_SET_NO":999,"REV_AT_EPOCH":55215,"BSTAR":0.00025536822,"MEAN_MOTION_DOT":4.351e-5,"MEAN_MOTION_DDOT":0}]
